{
  "type": "FeatureCollection",
  "features": [
    {
      "type": "Feature",
      "properties": {
        "norad_id": 66662,
        "name": "2025-274N",
        "group": "last-30-days",
        "lat": -43.320149904160225,
        "lon": 87.49130520589077,
        "alt_km": 589.2373611894445,
        "timestamp": "2025-12-13T15:35:10.877237+00:00",
        "meta_object_name": "2025-274N",
        "meta_object_id": "2025-274N",
        "meta_epoch": "2025-12-12T20:53:40.108704",
        "meta_mean_motion": 14.93150315,
        "meta_eccentricity": 0.00137914,
        "meta_inclination": 97.7384,
        "meta_ra_of_asc_node": 274.0926,
        "meta_arg_of_pericenter": 281.0669,
        "meta_mean_anomaly": 78.8999,
        "meta_ephemeris_type": 0,
        "meta_classification_type": "U",
        "meta_norad_cat_id": 66662,
        "meta_element_set_no": 999,
        "meta_rev_at_epoch": 242,
        "meta_bstar": 0.00042220139,
        "meta_mean_motion_dot": 4.357e-05,
        "meta_mean_motion_ddot": 0,
        "tle_line1": "1 66662U 25274N   25346.87060311  .00004357  00000+0  42220-3 0  9993",
        "tle_line2": "2 66662  97.7384 274.0926 0013791 281.0669  78.8999 14.93150315  2429"
      },
      "geometry": {
        "type": "Point",
        "coordinates": [
          87.49130520589077,
          -43.320149904160225
        ]
      }
    },
    {
      "type": "Feature",
      "properties": {
        "norad_id": 66663,
        "name": "KSLV-II R/B",
        "group": "last-30-days",
        "lat": 58.90099243929821,
        "lon": 108.01451665944091,
        "alt_km": 604.30571343256,
        "timestamp": "2025-12-13T15:35:10.877247+00:00",
        "meta_object_name": "KSLV-II R/B",
        "meta_object_id": "2025-274P",
        "meta_epoch": "2025-12-12T19:48:15.224544",
        "meta_mean_motion": 14.97302945,
        "meta_eccentricity": 0.00522806,
        "meta_inclination": 97.7408,
        "meta_ra_of_asc_node": 274.166,
        "meta_arg_of_pericenter": 319.515,
        "meta_mean_anomaly": 40.2187,
        "meta_ephemeris_type": 0,
        "meta_classification_type": "U",
        "meta_norad_cat_id": 66663,
        "meta_element_set_no": 999,
        "meta_rev_at_epoch": 242,
        "meta_bstar": 0.0012317684,
        "meta_mean_motion_dot": 0.00014649,
        "meta_mean_motion_ddot": 0,
        "tle_line1": "1 66663U 25274P   25346.82517621  .00014649  00000+0  12318-2 0  9999",
        "tle_line2": "2 66663  97.7408 274.1660 0052280 319.5150  40.2187 14.97302945  2425"
      },
      "geometry": {
        "type": "Point",
        "coordinates": [
          108.01451665944091,
          58.90099243929821
        ]
      }
    },
    {
      "type": "Feature",
      "properties": {
        "norad_id": 66664,
        "name": "SOYUZ-MS 28",
        "group": "last-30-days",
        "lat": 46.12881425166519,
        "lon": -166.52516770421335,
        "alt_km": 413.84335824393656,
        "timestamp": "2025-12-13T15:35:10.877259+00:00",
        "meta_object_name": "SOYUZ-MS 28",
        "meta_object_id": "2025-275A",
        "meta_epoch": "2025-12-12T20:43:30.984384",
        "meta_mean_motion": 15.49550036,
        "meta_eccentricity": 0.00032451,
        "meta_inclination": 51.6304,
        "meta_ra_of_asc_node": 141.8664,
        "meta_arg_of_pericenter": 240.6311,
        "meta_mean_anomaly": 119.4354,
        "meta_ephemeris_type": 0,
        "meta_classification_type": "U",
        "meta_norad_cat_id": 66664,
        "meta_element_set_no": 999,
        "meta_rev_at_epoch": 128,
        "meta_bstar": 0.00025741225,
        "meta_mean_motion_dot": 0.00014033,
        "meta_mean_motion_ddot": 0,
        "tle_line1": "1 66664U 25275A   25346.86355306  .00014033  00000+0  25741-3 0  9997",
        "tle_line2": "2 66664  51.6304 141.8664 0003245 240.6311 119.4354 15.49550036  1286"
      },
      "geometry": {
        "type": "Point",
        "coordinates": [
          -166.52516770421335,
          46.12881425166519
        ]
      }
    },
    {
      "type": "Feature",
      "properties": {
        "norad_id": 66791,
        "name": "STARLINK-35867",
        "group": "last-30-days",
        "lat": -5.091394682966737,
        "lon": 72.00616693880171,
        "alt_km": 311.1066777603237,
        "timestamp": "2025-12-13T15:35:10.877433+00:00",
        "meta_object_name": "STARLINK-35867",
        "meta_object_id": "2025-278A",
        "meta_epoch": "2025-12-12T19:09:51.451488",
        "meta_mean_motion": 15.87189628,
        "meta_eccentricity": 0.00022639,
        "meta_inclination": 42.9976,
        "meta_ra_of_asc_node": 251.7746,
        "meta_arg_of_pericenter": 243.2909,
        "meta_mean_anomaly": 116.7733,
        "meta_ephemeris_type": 0,
        "meta_classification_type": "U",
        "meta_norad_cat_id": 66791,
        "meta_element_set_no": 999,
        "meta_rev_at_epoch": 184,
        "meta_bstar": -0.0010184614,
        "meta_mean_motion_dot": -0.0026751,
        "meta_mean_motion_ddot": 0,
        "tle_line1": "1 66791U 25278A   25346.79851217 -.00267510  00000+0 -10185-2 0  9992",
        "tle_line2": "2 66791  42.9976 251.7746 0002263 243.2909 116.7733 15.87189628  1848"
      },
      "geometry": {
        "type": "Point",
        "coordinates": [
          72.00616693880171,
          -5.091394682966737
        ]
      }
    },
    {
      "type": "Feature",
      "properties": {
        "norad_id": 66792,
        "name": "STARLINK-35990",
        "group": "last-30-days",
        "lat": -6.271248063646219,
        "lon": 73.2875015110651,
        "alt_km": 312.8987738940641,
        "timestamp": "2025-12-13T15:35:10.877445+00:00",
        "meta_object_name": "STARLINK-35990",
        "meta_object_id": "2025-278B",
        "meta_epoch": "2025-12-12T17:38:48.609312",
        "meta_mean_motion": 15.87325977,
        "meta_eccentricity": 0.00032094,
        "meta_inclination": 42.998,
        "meta_ra_of_asc_node": 252.1605,
        "meta_arg_of_pericenter": 289.104,
        "meta_mean_anomaly": 70.9486,
        "meta_ephemeris_type": 0,
        "meta_classification_type": "U",
        "meta_norad_cat_id": 66792,
        "meta_element_set_no": 999,
        "meta_rev_at_epoch": 183,
        "meta_bstar": -0.0013782196,
        "meta_mean_motion_dot": -0.00360633,
        "meta_mean_motion_ddot": 0,
        "tle_line1": "1 66792U 25278B   25346.73528483 -.00360633  00000+0 -13782-2 0  9999",
        "tle_line2": "2 66792  42.9980 252.1605 0003209 289.1040  70.9486 15.87325977  1833"
      },
      "geometry": {
        "type": "Point",
        "coordinates": [
          73.2875015110651,
          -6.271248063646219
        ]
      }
    },
    {
      "type": "Feature",
      "properties": {
        "norad_id": 66793,
        "name": "STARLINK-36051",
        "group": "last-30-days",
        "lat": -9.610934706963212,
        "lon": 76.97148579244421,
        "alt_km": 311.8345089847289,
        "timestamp": "2025-12-13T15:35:10.877457+00:00",
        "meta_object_name": "STARLINK-36051",
        "meta_object_id": "2025-278C",
        "meta_epoch": "2025-12-12T19:08:07.847520",
        "meta_mean_motion": 15.87194207,
        "meta_eccentricity": 0.00024027,
        "meta_inclination": 42.9969,
        "meta_ra_of_asc_node": 251.7629,
        "meta_arg_of_pericenter": 248.4866,
        "meta_mean_anomaly": 111.5751,
        "meta_ephemeris_type": 0,
        "meta_classification_type": "U",
        "meta_norad_cat_id": 66793,
        "meta_element_set_no": 999,
        "meta_rev_at_epoch": 184,
        "meta_bstar": -0.0012635404,
        "meta_mean_motion_dot": -0.00329553,
        "meta_mean_motion_ddot": 0,
        "tle_line1": "1 66793U 25278C   25346.79731305 -.00329553  00000+0 -12635-2 0  9997",
        "tle_line2": "2 66793  42.9969 251.7629 0002402 248.4866 111.5751 15.87194207  1848"
      },
      "geometry": {
        "type": "Point",
        "coordinates": [
          76.97148579244421,
          -9.610934706963212
        ]
      }
    },
    {
      "type": "Feature",
      "properties": {
        "norad_id": 66794,
        "name": "STARLINK-36062",
        "group": "last-30-days",
        "lat": -7.498302197557145,
        "lon": 74.63233190177921,
        "alt_km": 317.13731570602704,
        "timestamp": "2025-12-13T15:35:10.877467+00:00",
        "meta_object_name": "STARLINK-36062",
        "meta_object_id": "2025-278D",
        "meta_epoch": "2025-12-12T19:08:04.746624",
        "meta_mean_motion": 15.87288015,
        "meta_eccentricity": 0.00037515,
        "meta_inclination": 42.9971,
        "meta_ra_of_asc_node": 251.7652,
        "meta_arg_of_pericenter": 248.9687,
        "meta_mean_anomaly": 111.0785,
        "meta_ephemeris_type": 0,
        "meta_classification_type": "U",
        "meta_norad_cat_id": 66794,
        "meta_element_set_no": 999,
        "meta_rev_at_epoch": 184,
        "meta_bstar": -0.0066143343,
        "meta_mean_motion_dot": -0.01579906,
        "meta_mean_motion_ddot": 0,
        "tle_line1": "1 66794U 25278D   25346.79727716 -.01579906  00000+0 -66143-2 0  9992",
        "tle_line2": "2 66794  42.9971 251.7652 0003751 248.9687 111.0785 15.87288015  1845"
      },
      "geometry": {
        "type": "Point",
        "coordinates": [
          74.63233190177921,
          -7.498302197557145
        ]
      }
    }
  ]
}